{
    "links": {
        "self": "http://www.neowsapp.com/rest/v1/neo/3621815?api_key=iIulBulltgU6a56xZRHN4H3l9WmuAYTsLGpBGhQ2"
    },
    "id": "3621815",
    "neo_reference_id": "3621815",
    "name": "(2013 AC)",
    "designation": "2013 AC",
    "nasa_jpl_url": "http://ssd.jpl.nasa.gov/sbdb.cgi?sstr=3621815",
    "absolute_magnitude_h": 25.2,
    "estimated_diameter": {
        "kilometers": {
            "estimated_diameter_min": 0.0242412481,
            "estimated_diameter_max": 0.0542050786
        },
        "meters": {
            "estimated_diameter_min": 24.2412481101,
            "estimated_diameter_max": 54.2050786336
        },
        "miles": {
            "estimated_diameter_min": 0.0150628086,
            "estimated_diameter_max": 0.0336814639
        },
        "feet": {
            "estimated_diameter_min": 79.5316564495,
            "estimated_diameter_max": 177.8381901842
        }
    },
    "is_potentially_hazardous_asteroid": false,
    "close_approach_data": [
        {
            "close_approach_date": "2012-12-22",
            "close_approach_date_full": "2012-Dec-22 01:43",
            "epoch_date_close_approach": 1356140580000,
            "relative_velocity": {
                "kilometers_per_second": "5.9083546395",
                "kilometers_per_hour": "21270.0767022385",
                "miles_per_hour": "13216.3984931215"
            },
            "miss_distance": {
                "astronomical": "0.0398505737",
                "lunar": "15.5018731693",
                "kilometers": "5961560.943798019",
                "miles": "3704342.1978459022"
            },
            "orbiting_body": "Earth"
        },
        {
            "close_approach_date": "2050-01-14",
            "close_approach_date_full": "2050-Jan-14 11:04",
            "epoch_date_close_approach": 2525771040000,
            "relative_velocity": {
                "kilometers_per_second": "11.5363355315",
                "kilometers_per_hour": "41530.8079133644",
                "miles_per_hour": "25805.6289503902"
            },
            "miss_distance": {
                "astronomical": "0.2024139081",
                "lunar": "78.7390102509",
                "kilometers": "30280689.510135747",
                "miles": "18815547.9730454286"
            },
            "orbiting_body": "Earth"
        },
        {
            "close_approach_date": "2134-10-07",
            "close_approach_date_full": "2134-Oct-07 02:51",
            "epoch_date_close_approach": 5199475860000,
            "relative_velocity": {
                "kilometers_per_second": "20.2963564612",
                "kilometers_per_hour": "73066.8832604064",
                "miles_per_hour": "45400.919768112"
            },
            "miss_distance": {
                "astronomical": "0.4953607572",
                "lunar": "192.6953345508",
                "kilometers": "74104914.158707164",
                "miles": "46046658.4462963032"
            },
            "orbiting_body": "Earth"
        },
        {
            "close_approach_date": "2184-10-28",
            "close_approach_date_full": "2184-Oct-28 05:33",
            "epoch_date_close_approach": 6779223180000,
            "relative_velocity": {
                "kilometers_per_second": "10.4217704394",
                "kilometers_per_hour": "37518.3735819116",
                "miles_per_hour": "23312.4582959384"
            },
            "miss_distance": {
                "astronomical": "0.1716094614",
                "lunar": "66.7560804846",
                "kilometers": "25672409.897287218",
                "miles": "15952095.8016628884"
            },
            "orbiting_body": "Earth"
        }
    ],
    "orbital_data": {
        "orbit_id": "9",
        "orbit_determination_date": "2017-04-06 08:47:28",
        "first_observation_date": "2013-01-01",
        "last_observation_date": "2013-01-16",
        "data_arc_in_days": 15,
        "observations_used": 31,
        "orbit_uncertainty": "7",
        "minimum_orbit_intersection": ".0298589",
        "jupiter_tisserand_invariant": "4.134",
        "epoch_osculation": "2459000.5",
        "eccentricity": ".4045521047911608",
        "semi_major_axis": "1.68094019644036",
        "inclination": "1.960206771348559",
        "ascending_node_longitude": "303.1608956304131",
        "orbital_period": "796.0252078212665",
        "perihelion_distance": "1.000912301942345",
        "perihelion_argument": "129.8005176483832",
        "aphelion_distance": "2.360968090938375",
        "perihelion_time": "2458657.938755201878",
        "mean_anomaly": "154.9222900426211",
        "mean_motion": ".4522469847221618",
        "equinox": "J2000",
        "orbit_class": {
            "orbit_class_type": "APO",
            "orbit_class_description": "Near-Earth asteroid orbits which cross the Earth’s orbit similar to that of 1862 Apollo",
            "orbit_class_range": "a (semi-major axis) > 1.0 AU; q (perihelion) < 1.017 AU"
        }
    },
    "is_sentry_object": false
}